{
  "type": "FeatureCollection",
  "features": [
    {
      "type": "Feature",
      "properties": {
        "norad_id": 64751,
        "name": "PROGRESS-MS 31",
        "group": "stations",
        "lat": -32.887223365297906,
        "lon": -27.31724895630122,
        "alt_km": 419.90294619289125,
        "timestamp": "2025-12-16T21:38:55.938383+00:00",
        "meta_object_name": "PROGRESS-MS 31",
        "meta_object_id": "2025-146A",
        "meta_epoch": "2025-12-16T02:06:50.626944",
        "meta_mean_motion": 15.49613604,
        "meta_eccentricity": 0.00031739,
        "meta_inclination": 51.6306,
        "meta_ra_of_asc_node": 125.8981,
        "meta_arg_of_pericenter": 255.6781,
        "meta_mean_anomaly": 104.3856,
        "meta_ephemeris_type": 0,
        "meta_classification_type": "U",
        "meta_norad_cat_id": 64751,
        "meta_element_set_no": 999,
        "meta_rev_at_epoch": 675,
        "meta_bstar": 0.00012170727,
        "meta_mean_motion_dot": 6.404e-05,
        "meta_mean_motion_ddot": 0,
        "tle_line1": "1 64751U 25146A   25350.08808596  .00006404  00000+0  12171-3 0  9998",
        "tle_line2": "2 64751  51.6306 125.8981 0003173 255.6781 104.3856 15.49613604  6752"
      },
      "geometry": {
        "type": "Point",
        "coordinates": [
          -27.31724895630122,
          -32.887223365297906
        ]
      }
    },
    {
      "type": "Feature",
      "properties": {
        "norad_id": 64786,
        "name": "TIANZHOU-9",
        "group": "stations",
        "lat": 27.304449757497636,
        "lon": 135.6612164480564,
        "alt_km": 383.2819714599309,
        "timestamp": "2025-12-16T21:38:55.938398+00:00",
        "meta_object_name": "TIANZHOU-9",
        "meta_object_id": "2025-149A",
        "meta_epoch": "2025-12-16T07:14:05.691264",
        "meta_mean_motion": 15.59326293,
        "meta_eccentricity": 0.00078559,
        "meta_inclination": 41.4684,
        "meta_ra_of_asc_node": 355.0821,
        "meta_arg_of_pericenter": 60.8888,
        "meta_mean_anomaly": 299.2736,
        "meta_ephemeris_type": 0,
        "meta_classification_type": "U",
        "meta_norad_cat_id": 64786,
        "meta_element_set_no": 999,
        "meta_rev_at_epoch": 25530,
        "meta_bstar": 0.00021422181,
        "meta_mean_motion_dot": 0.00017088,
        "meta_mean_motion_ddot": 0,
        "tle_line1": "1 64786U 25149A   25350.30145476  .00017088  00000+0  21422-3 0  9994",
        "tle_line2": "2 64786  41.4684 355.0821 0007855  60.8888 299.2736 15.59326293255305"
      },
      "geometry": {
        "type": "Point",
        "coordinates": [
          135.6612164480564,
          27.304449757497636
        ]
      }
    },
    {
      "type": "Feature",
      "properties": {
        "norad_id": 65077,
        "name": "CREW DRAGON 11",
        "group": "stations",
        "lat": -32.88722445186681,
        "lon": -27.31724753620878,
        "alt_km": 419.90294622131387,
        "timestamp": "2025-12-16T21:38:55.938408+00:00",
        "meta_object_name": "CREW DRAGON 11",
        "meta_object_id": "2025-166A",
        "meta_epoch": "2025-12-16T02:06:50.626944",
        "meta_mean_motion": 15.49613604,
        "meta_eccentricity": 0.00031739,
        "meta_inclination": 51.6306,
        "meta_ra_of_asc_node": 125.8981,
        "meta_arg_of_pericenter": 255.6781,
        "meta_mean_anomaly": 104.3856,
        "meta_ephemeris_type": 0,
        "meta_classification_type": "U",
        "meta_norad_cat_id": 65077,
        "meta_element_set_no": 999,
        "meta_rev_at_epoch": 214,
        "meta_bstar": 0.00012170727,
        "meta_mean_motion_dot": 6.404e-05,
        "meta_mean_motion_ddot": 0,
        "tle_line1": "1 65077U 25166A   25350.08808596  .00006404  00000+0  12171-3 0  9992",
        "tle_line2": "2 65077  51.6306 125.8981 0003173 255.6781 104.3856 15.49613604  2143"
      },
      "geometry": {
        "type": "Point",
        "coordinates": [
          -27.31724753620878,
          -32.88722445186681
        ]
      }
    },
    {
      "type": "Feature",
      "properties": {
        "norad_id": 65304,
        "name": "DRAGON CRS-33",
        "group": "stations",
        "lat": -32.887224973418476,
        "lon": -27.31724685456625,
        "alt_km": 419.9029462349572,
        "timestamp": "2025-12-16T21:38:55.938420+00:00",
        "meta_object_name": "DRAGON CRS-33",
        "meta_object_id": "2025-186A",
        "meta_epoch": "2025-12-16T02:06:50.626944",
        "meta_mean_motion": 15.49613604,
        "meta_eccentricity": 0.00031739,
        "meta_inclination": 51.6306,
        "meta_ra_of_asc_node": 125.8981,
        "meta_arg_of_pericenter": 255.6781,
        "meta_mean_anomaly": 104.3856,
        "meta_ephemeris_type": 0,
        "meta_classification_type": "U",
        "meta_norad_cat_id": 65304,
        "meta_element_set_no": 999,
        "meta_rev_at_epoch": 11,
        "meta_bstar": 0.00012170727,
        "meta_mean_motion_dot": 6.404e-05,
        "meta_mean_motion_ddot": 0,
        "tle_line1": "1 65304U 25186A   25350.08808596  .00006404  00000+0  12171-3 0  9997",
        "tle_line2": "2 65304  51.6306 125.8981 0003173 255.6781 104.3856 15.49613604   111"
      },
      "geometry": {
        "type": "Point",
        "coordinates": [
          -27.31724685456625,
          -32.887224973418476
        ]
      }
    },
    {
      "type": "Feature",
      "properties": {
        "norad_id": 65586,
        "name": "PROGRESS-MS 32",
        "group": "stations",
        "lat": -32.887225408045104,
        "lon": -27.317246286530438,
        "alt_km": 419.9029462463295,
        "timestamp": "2025-12-16T21:38:55.938430+00:00",
        "meta_object_name": "PROGRESS-MS 32",
        "meta_object_id": "2025-204A",
        "meta_epoch": "2025-12-16T02:06:50.626944",
        "meta_mean_motion": 15.49613604,
        "meta_eccentricity": 0.00031739,
        "meta_inclination": 51.6306,
        "meta_ra_of_asc_node": 125.8981,
        "meta_arg_of_pericenter": 255.6781,
        "meta_mean_anomaly": 104.3856,
        "meta_ephemeris_type": 0,
        "meta_classification_type": "U",
        "meta_norad_cat_id": 65586,
        "meta_element_set_no": 999,
        "meta_rev_at_epoch": 27,
        "meta_bstar": 0.00012170727,
        "meta_mean_motion_dot": 6.404e-05,
        "meta_mean_motion_ddot": 0,
        "tle_line1": "1 65586U 25204A   25350.08808596  .00006404  00000+0  12171-3 0  9990",
        "tle_line2": "2 65586  51.6306 125.8981 0003173 255.6781 104.3856 15.49613604   270"
      },
      "geometry": {
        "type": "Point",
        "coordinates": [
          -27.317246286530438,
          -32.887225408045104
        ]
      }
    },
    {
      "type": "Feature",
      "properties": {
        "norad_id": 65616,
        "name": "CYGNUS NG-23",
        "group": "stations",
        "lat": -32.88722584267179,
        "lon": -27.317245718494593,
        "alt_km": 419.9029462576973,
        "timestamp": "2025-12-16T21:38:55.938440+00:00",
        "meta_object_name": "CYGNUS NG-23",
        "meta_object_id": "2025-208A",
        "meta_epoch": "2025-12-16T02:06:50.626944",
        "meta_mean_motion": 15.49613604,
        "meta_eccentricity": 0.00031739,
        "meta_inclination": 51.6306,
        "meta_ra_of_asc_node": 125.8981,
        "meta_arg_of_pericenter": 255.6781,
        "meta_mean_anomaly": 104.3856,
        "meta_ephemeris_type": 0,
        "meta_classification_type": "U",
        "meta_norad_cat_id": 65616,
        "meta_element_set_no": 999,
        "meta_rev_at_epoch": 22,
        "meta_bstar": 0.00012170727,
        "meta_mean_motion_dot": 6.404e-05,
        "meta_mean_motion_ddot": 0,
        "tle_line1": "1 65616U 25208A   25350.08808596  .00006404  00000+0  12171-3 0  9998",
        "tle_line2": "2 65616  51.6306 125.8981 0003173 255.6781 104.3856 15.49613604   229"
      },
      "geometry": {
        "type": "Point",
        "coordinates": [
          -27.317245718494593,
          -32.88722584267179
        ]
      }
    },
    {
      "type": "Feature",
      "properties": {
        "norad_id": 65729,
        "name": "DRAGONFLY",
        "group": "stations",
        "lat": -6.3130477175634185,
        "lon": -60.54527670116754,
        "alt_km": 353.02760953545203,
        "timestamp": "2025-12-16T21:38:55.938450+00:00",
        "meta_object_name": "DRAGONFLY",
        "meta_object_id": "1998-067XH",
        "meta_epoch": "2025-12-16T08:39:23.844096",
        "meta_mean_motion": 15.73131629,
        "meta_eccentricity": 0.00070668,
        "meta_inclination": 51.6242,
        "meta_ra_of_asc_node": 117.2037,
        "meta_arg_of_pericenter": 301.2639,
        "meta_mean_anomaly": 58.7667,
        "meta_ephemeris_type": 0,
        "meta_classification_type": "U",
        "meta_norad_cat_id": 65729,
        "meta_element_set_no": 999,
        "meta_rev_at_epoch": 1373,
        "meta_bstar": 0.0010798452,
        "meta_mean_motion_dot": 0.00153726,
        "meta_mean_motion_ddot": 0,
        "tle_line1": "1 65729U 98067XH  25350.36069264  .00153726  00000+0  10798-2 0  9990",
        "tle_line2": "2 65729  51.6242 117.2037 0007066 301.2639  58.7667 15.73131629 13736"
      },
      "geometry": {
        "type": "Point",
        "coordinates": [
          -60.54527670116754,
          -6.3130477175634185
        ]
      }
    }
  ]
}